NORAD_CAT_ID,OBJECT_NAME,OBJECT_TYPE,EPOCH,MEAN_MOTION,ECCENTRICITY,INCLINATION,RA_OF_ASC_NODE,ARG_OF_PERICENTER,MEAN_ANOMALY,BSTAR,MEAN_MOTION_DOT,MEAN_MOTION_DDOT,TLE_LINE0,TLE_LINE1,TLE_LINE2,SEMIMAJOR_AXIS,PERIOD,APOGEE,PERIGEE,DECAYED
49146.0,STARLINK-3116,PAYLOAD,2022-05-31 22:00:00,14.96679988,0.0003016,70.0,147.7506,272.2399,80.5948,0.0045631,0.00052483,0.0,0 STARLINK-3116,1 49146U 21082S   22151.91667824  .00052483  00000-0  45631-2 0  9994,2 49146  70.0000 147.7506 0003016 272.2399  80.5948 14.96679988  1302,6955.3,96.213,579.263,575.067,0.0
49146.0,STARLINK-3116,PAYLOAD,2022-06-01 06:00:00,14.9670595,0.0003087,70.0002,146.9123,276.9865,71.3797,-0.00069199,-8.001e-05,0.0,0 STARLINK-3116,1 49146U 21082S   22152.25001157 -.00008001  00000-0 -69199-3 0  9998,2 49146  70.0002 146.9123 0003087 276.9865  71.3797 14.96705950 41322,6955.22,96.211,579.232,574.938,0.0
49146.0,STARLINK-3116,PAYLOAD,2022-06-01 20:00:01,14.96671219,0.0003091,70.0003,145.4451,273.0903,337.4711,0.0058219,0.00067112,0.0,0 STARLINK-3116,1 49146U 21082S   22152.83334491  .00067112  00000-0  58219-2 0  9998,2 49146  70.0003 145.4451 0003091 273.0903 337.4711 14.96671219  1303,6955.3269999999975,96.214,579.342,575.0419999999998,0.0
49146.0,STARLINK-3116,PAYLOAD,2022-06-03 02:57:49,14.96707261,0.0003041,69.9991,142.2007,275.8888,84.1924,6.6113e-05,6.65e-06,0.0,0 STARLINK-3116,1 49146U 21082S   22154.12349240  .00000665  00000-0  66113-4 0  9994,2 49146  69.9991 142.2007 0003041 275.8888  84.1924 14.96707261 41601,6955.215999999999,96.211,579.196,574.966,0.0
49146.0,STARLINK-3116,PAYLOAD,2022-06-03 10:59:01,14.96708593,0.0003044,69.9991,141.3603,276.0241,84.057,7.5512e-05,7.73e-06,0.0,0 STARLINK-3116,1 49146U 21082S   22154.45765311  .00000773  00000-0  75512-4 0  9994,2 49146  69.9991 141.3603 0003044 276.0241  84.0570 14.96708593 41641,6955.2109999999975,96.211,579.194,574.9590000000002,0.0
49146.0,STARLINK-3116,PAYLOAD,2022-06-04 03:01:24,14.96710837,0.000303,69.9992,139.6795,276.192,83.8893,7.3275e-05,7.47e-06,0.0,0 STARLINK-3116,1 49146U 21082S   22155.12597438  .00000747  00000-0  73275-4 0  9997,2 49146  69.9992 139.6795 0003030 276.1920  83.8893 14.96710837 41755,6955.205,96.211,579.177,574.962,0.0
49146.0,STARLINK-3116,PAYLOAD,2022-06-04 09:26:21,14.96710975,0.0003031,69.9993,139.0072,276.4666,83.6147,7.0276e-05,7.13e-06,0.0,0 STARLINK-3116,1 49146U 21082S   22155.39330326  .00000713  00000-0  70276-4 0  9998,2 49146  69.9993 139.0072 0003031 276.4666  83.6147 14.96710975 41785,6955.204000000002,96.211,579.177,574.961,0.0
49146.0,STARLINK-3116,PAYLOAD,2022-06-05 22:00:00,14.96714069,0.0002936,70.0013,135.1764,271.9448,14.0174,0.0022144,0.00025345,0.0,0 STARLINK-3116,1 49146U 21082S   22156.91667824  .00025345  00000-0  22144-2 0  9990,2 49146  70.0013 135.1764 0002936 271.9448  14.0174 14.96714069 42021,6955.195,96.211,579.102,575.0169999999998,0.0
49146.0,STARLINK-3116,PAYLOAD,2022-06-06 14:00:01,14.96743872,0.0003,70.0009,133.4996,276.9519,0.1192,-0.0044348999999999,-0.00050524,0.0,0 STARLINK-3116,1 49146U 21082S   22157.58334491 -.00050524  00000-0 -44349-2 0  9995,2 49146  70.0009 133.4996 0003000 276.9519   0.1192 14.96743872 42122,6955.102,96.209,579.054,574.881,0.0
49146.0,STARLINK-3116,PAYLOAD,2022-06-06 20:00:01,14.96698122,0.0003001,70.0011,132.8709,272.0699,271.6792,0.0049671,0.00057203,0.0,0 STARLINK-3116,1 49146U 21082S   22157.83334491  .00057203  00000-0  49671-2 0  9995,2 49146  70.0011 132.8709 0003001 272.0699 271.6792 14.96698122 42169,6955.244000000002,96.212,579.196,575.0219999999998,0.0
49146.0,STARLINK-3116,PAYLOAD,2022-06-07 04:48:20,14.96722854,0.0002997,69.9993,131.9479,275.4482,84.6335,9.0923e-05,9.49e-06,0.0,0 STARLINK-3116,1 49146U 21082S   22158.20023716  .00000949  00000-0  90923-4 0  9995,2 49146  69.9993 131.9479 0002997 275.4482  84.6335 14.96722854 42210,6955.167,96.21,579.117,574.948,0.0
49146.0,STARLINK-3116,PAYLOAD,2022-06-07 09:37:03,14.96724678,0.0002986,69.9993,131.4436,275.4716,84.6101,0.00011018,1.17e-05,0.0,0 STARLINK-3116,1 49146U 21082S   22158.40073091  .00001170  00000-0  11018-3 0  9992,2 49146  69.9993 131.4436 0002986 275.4716  84.6101 14.96724678 42235,6955.1619999999975,96.21,579.1030000000002,574.95,0.0
49146.0,STARLINK-3116,PAYLOAD,2022-06-07 16:02:00,14.96726671,0.0002989,69.9993,130.7713,275.4422,84.6395,0.00011531,1.229e-05,0.0,0 STARLINK-3116,1 49146U 21082S   22158.66805591  .00001229  00000-0  11531-3 0  9993,2 49146  69.9993 130.7713 0002989 275.4422  84.6395 14.96726671 42276,6955.155,96.21,579.099,574.942,0.0
49146.0,STARLINK-3116,PAYLOAD,2022-06-08 08:04:22,14.9673084,0.0002969,69.9993,129.0905,275.3002,84.7817,0.0001318,1.418e-05,0.0,0 STARLINK-3116,1 49146U 21082S   22159.33636788  .00001418  00000-0  13180-3 0  9990,2 49146  69.9993 129.0905 0002969 275.3002  84.7817 14.96730840 42386,6955.143,96.21,579.073,574.943,0.0
49146.0,STARLINK-3116,PAYLOAD,2022-06-08 20:54:15,14.96733383,0.0002961,69.9994,127.7459,275.3212,84.7609,0.00013067,1.405e-05,0.0,0 STARLINK-3116,1 49146U 21082S   22159.87101694  .00001405  00000-0  13067-3 0  9992,2 49146  69.9994 127.7459 0002961 275.3212  84.7609 14.96733383 42453,6955.135,96.21,579.059,574.94,0.0
49146.0,STARLINK-3116,PAYLOAD,2022-06-09 04:55:27,14.96726985,0.0002912,69.9996,126.9055,275.3548,84.7278,4.7565e-05,4.53e-06,0.0,0 STARLINK-3116,1 49146U 21082S   22160.20518123  .00000453  00000-0  47565-4 0  9993,2 49146  69.9996 126.9055 0002912 275.3548  84.7278 14.96726985 42515,6955.155,96.21,579.045,574.994,0.0
49146.0,STARLINK-3116,PAYLOAD,2022-06-09 09:44:10,14.96720373,0.0002982,69.9997,126.4013,275.5616,84.5202,-3.553e-05,-4.98e-06,0.0,0 STARLINK-3116,1 49146U 21082S   22160.40568178 -.00000498  00000-0 -35530-4 0  9990,2 49146  69.9997 126.4013 0002982 275.5616  84.5202 14.96720373 42532,6955.175,96.21,579.114,574.966,0.0
49146.0,STARLINK-3116,PAYLOAD,2022-06-10 09:47:44,14.9672432,0.0003066,69.9995,123.8799,277.5965,82.4845,-2.8914e-05,-4.23e-06,0.0,0 STARLINK-3116,1 49146U 21082S   22161.40815358 -.00000423  00000-0 -28914-4 0  9992,2 49146  69.9995 123.8799 0003066 277.5965  82.4845 14.96724320 42698,6955.163000000001,96.21,579.16,574.895,0.0
49146.0,STARLINK-3116,PAYLOAD,2022-06-10 21:01:23,14.96720574,0.0003061,69.9997,122.7037,274.4122,85.6687,0.00013243,1.425e-05,0.0,0 STARLINK-3116,1 49146U 21082S   22161.87597190  .00001425  00000-0  13243-3 0  9993,2 49146  69.9997 122.7037 0003061 274.4122  85.6687 14.96720574 42752,6955.174,96.21,579.168,574.91,0.0
49146.0,STARLINK-3116,PAYLOAD,2022-06-11 14:40:01,14.9671887,0.0003046,69.9997,120.855,274.813,85.26799999999999,7.941300000000001e-05,8.18e-06,0.0,0 STARLINK-3116,1 49146U 21082S   22162.61112450  .00000818  00000-0  79413-4 0  9995,2 49146  69.9997 120.8550 0003046 274.8130  85.2680 14.96718870 42875,6955.18,96.21,579.163,574.9259999999998,0.0
49146.0,STARLINK-3116,PAYLOAD,2022-06-12 08:18:38,14.96714637,0.000301,69.9999,119.006,274.3528,85.7286,-2.1731e-05,-3.4e-06,0.0,0 STARLINK-3116,1 49146U 21082S   22163.34628048 -.00000340  00000-0 -21731-4 0  9993,2 49146  69.9999 119.0060 0003010 274.3528  85.7286 14.96714637 42986,6955.193,96.211,579.151,574.964,0.0
49146.0,STARLINK-3116,PAYLOAD,2022-06-12 21:08:32,14.96720822,0.0003027,69.9996,117.6615,274.2835,85.7977,1.5651e-05,8.8e-07,0.0,0 STARLINK-3116,1 49146U 21082S   22163.88093124  .00000088  00000-0  15651-4 0  9994,2 49146  69.9996 117.6615 0003027 274.2835  85.7977 14.96720822 43050,6955.174,96.21,579.144,574.933,0.0
49146.0,STARLINK-3116,PAYLOAD,2022-06-13 05:09:43,14.96722841,0.0003037,69.9997,116.821,274.0761,86.005,2.4706e-05,1.91e-06,0.0,0 STARLINK-3116,1 49146U 21082S   22164.21508863  .00000191  00000-0  24706-4 0  9999,2 49146  69.9997 116.8210 0003037 274.0761  86.0050 14.96722841 43116,6955.167,96.21,579.145,574.92,0.0
49146.0,STARLINK-3116,PAYLOAD,2022-06-13 08:22:12,14.96724253,0.0003026,69.9997,116.4847,274.0695,86.0118,4.1343e-05,3.82e-06,0.0,0 STARLINK-3116,1 49146U 21082S   22164.34875081  .00000382  00000-0  41343-4 0  9990,2 49146  69.9997 116.4847 0003026 274.0695  86.0118 14.96724253 43127,6955.163000000001,96.21,579.133,574.923,0.0
49146.0,STARLINK-3116,PAYLOAD,2022-06-13 21:12:05,14.96723167,0.0003098,69.9998,115.1403,273.7813,86.2991,0.00020102,2.21e-05,0.0,0 STARLINK-3116,1 49146U 21082S   22164.88340158  .00002210  00000-0  20102-3 0  9992,2 49146  69.9998 115.1403 0003098 273.7813  86.2991 14.96723167 43202,6955.166,96.21,579.186,574.877,0.0
49146.0,STARLINK-3116,PAYLOAD,2022-06-14 08:25:46,14.96718361,0.0003102,69.9996,113.9637,273.1984,86.8819,0.00012996,1.396e-05,0.0,0 STARLINK-3116,1 49146U 21082S   22165.35123188  .00001396  00000-0  12996-3 0  9993,2 49146  69.9996 113.9637 0003102 273.1984  86.8819 14.96718361 43287,6955.181,96.21,579.2040000000002,574.889,0.0
49146.0,STARLINK-3116,PAYLOAD,2022-06-14 13:14:29,14.96718759,0.0003111,69.9995,113.4594,273.132,86.9483,0.00010792,1.144e-05,0.0,0 STARLINK-3116,1 49146U 21082S   22165.55172732  .00001144  00000-0  10792-3 0  9997,2 49146  69.9995 113.4594 0003111 273.1320  86.9483 14.96718759 43309,6955.18,96.21,579.2090000000002,574.881,0.0
49146.0,STARLINK-3116,PAYLOAD,2022-06-14 21:15:40,14.96720792,0.0003091,69.9994,112.619,272.9528,87.1276,8.837399999999999e-05,9.2e-06,0.0,0 STARLINK-3116,1 49146U 21082S   22165.88588606  .00000920  00000-0  88374-4 0  9997,2 49146  69.9994 112.6190 0003091 272.9528  87.1276 14.96720792 43353,6955.174,96.21,579.189,574.889,0.0
49146.0,STARLINK-3116,PAYLOAD,2022-06-15 13:18:03,14.96715421,0.0003115,69.9991,110.938,273.2196,86.8606,-5.321899999999999e-05,-7.01e-06,0.0,0 STARLINK-3116,1 49146U 21082S   22166.55421029 -.00000701  00000-0 -53219-4 0  9996,2 49146  69.9991 110.9380 0003115 273.2196  86.8606 14.96715421 43451,6955.19,96.211,579.222,574.889,0.0
